              M50 Cartesian                         J2K Cartesian  
    -----------------------------------       --------------------------------
     X    =      -11738946.86                 X    =        -3619314.03
     Y    =       16335932.40  feet           Y    =         4938949.18  meter
     Z    =       -9542882.98                 Z    =        -2926153.31
     XDOT =     -18535.374320                 XDOT =       -5661.216303
     YDOT =      -3667.895692  feet/sec       YDOT =       -1181.216511  meter/sec
     ZDOT =      16584.417997                 ZDOT =        5027.457210
 
              TDR Cartesian                         TDR Cartesian  
    -----------------------------------       --------------------------------
     X    =         651177.42                 X    =          198478.88
     Y    =      -20069364.80  feet           Y    =        -6117142.39  meter
     Z    =       -9619186.08                 Z    =        -2931927.92
     XDOT =      16078.972751                 XDOT =        4900.870894
     YDOT =      -7340.691348  feet/sec       YDOT =       -2237.442723  meter/sec
     ZDOT =      16465.962634                 ZDOT =        5018.825411
  
  
    The mean element set is posted at the UTC for which position is
    just north of the next ascending node relative to the above
    vector time
 
 
    TWO LINE MEAN ELEMENT SET
  
    ISS
    1 25544U 98067A   15299.50597729  .00016717  00000-0  10270-3 0  9142
    2 25544  51.6413 148.6697 0006412  73.5706 286.6152 15.54496419  8471
  
  
    Satellite: ISS
    Catalog Number: 25544
    Epoch time:      15299.50597729   =   yrday.fracday
    Element set:     914
    Inclination:       51.6413  deg
    RA of node:       148.6697  deg
    Eccentricity:     .0006412     
    Arg of perigee:    73.5706  deg
    Mean anomaly:     286.6152  deg
    Mean motion:   15.54496419  rev/day
    Decay rate:    1.67170E-04  rev/day^2
    Epoch rev:             847
    Checksum:              347
 
             </PRE>
           </TD>
        </TR>
    </TABLE>
    
    <table align="center" border="0" width="600" cellpadding="0" cellspacing="0">
      <tr>
        <td align="center" valign="top"><hr size="1" width="600" noshade="noshade" />
        <font face="Arial,helvetica" size="-2">Curator: <a href="/cgi-bin/comment.cgi?jsc-hsfwebma@mail.nasa.gov">Kim 
          Dismukes</a> | Responsible NASA Official: <a href="/cgi-bin/comment.cgi?jsc-hsfwebma@mail.nasa.gov">Amiko Kauderer</a> | Updated: 06/08/2009<br />
        <a href="http://www.nasa.gov/about/highlights/HP_Privacy.html">Privacy Policy and Important Notices</a></font></td>
      </tr>
    </table>
    </body>
    </html>
